STARLINK-34030
1 64030U 25102J   26090.22083196  .01355137  00000+0  99338-1 0  9998
2 64030  70.0037  60.3144 0014639 324.8187  35.2005 15.00134238 49180
